COSMOS 2251 DEB         
1 34452U 93036SV  26195.81725880  .00008535  00000+0  40163-3 0  9998
2 34452  74.0258  97.0251 0056395 118.6765 242.0118 15.18237878939056
COSMOS 2251 DEB         
1 34454U 93036SX  26195.56016458  .00000210  00000+0  75785-4 0  9997
2 34454  74.0571 243.7506 0036350 256.1188 103.5922 14.39089383911439
COSMOS 2251 DEB         
1 34459U 93036TC  26195.54721226  .00000319  00000+0  19627-3 0  9998
2 34459  74.0776 244.4024 0192282 263.3668  94.5549 14.00791838887051
COSMOS 2251 DEB         
1 34468U 93036TM  26195.83544985  .00000358  00000+0  10057-3 0  9996
2 34468  74.0122  75.9441 0075057 169.3731 190.9037 14.48036563915607
COSMOS 2251 DEB         
1 34472U 93036TR  26195.47899067  .00000254  00000+0  21024-3 0  9996
2 34472  74.0818 106.4122 0330527 187.5246 172.0848 13.70894221866556
COSMOS 2251 DEB         
1 34474U 93036TT  26195.75637588  .00000928  00000+0  46860-3 0  9990
2 34474  74.0767 312.0474 0200821 335.6863 145.4957 14.07742773885191
COSMOS 2251 DEB         
1 34476U 93036TV  26193.75586994  .00001511  00000+0  96556-3 0  9990
2 34476  74.0068  84.5424 0305969 257.4514  99.2233 13.83825515865691
COSMOS 2251 DEB         
1 34477U 93036TW  26195.66954045  .00001444  00000+0  30872-3 0  9993
2 34477  73.9767  21.3875 0074381 156.9584 327.6390 14.58041204917425
COSMOS 2251 DEB         
1 34478U 93036TX  26195.63115781  .00132366  00000+0  23467-2 0  9996
2 34478  74.0297 275.6166 0013609  16.5582 343.6073 15.49594889922322
COSMOS 2251 DEB         
1 34481U 93036UA  26195.67840874  .00000746  00000+0  27362-3 0  9997
2 34481  73.9785  21.2750 0069802 145.2311 341.5757 14.33169405905136
COSMOS 2251 DEB         
1 34482U 93036UB  26195.34450766  .00004474  00000+0  67583-3 0  9990
2 34482  74.0343 168.1324 0040572 181.0380 329.7196 14.74034663913309
COSMOS 2251 DEB         
1 34544U 93036UE  26195.51244275  .00000337  00000+0  32694-3 0  9993
2 34544  73.9136 217.8566 0382449 206.9772 308.4376 13.55005494857770
COSMOS 2251 DEB         
1 34546U 93036UG  26195.81808742  .00000742  00000+0  21417-3 0  9994
2 34546  74.0282 209.6961 0022680 239.3493 176.1688 14.46258467911208
COSMOS 2251 DEB         
1 34547U 93036UH  26195.25806862  .00004141  00000+0  59715-3 0  9993
2 34547  74.0285  43.4982 0018748  73.6647 286.6587 14.76503258916696
COSMOS 2251 DEB         
1 34553U 93036UP  26195.88125383  .00001845  00000+0  39120-3 0  9997
2 34553  74.0246 143.6942 0019057 175.7431 246.8668 14.59821511912193
COSMOS 2251 DEB         
1 34554U 93036UQ  26195.19059627  .00000360  00000+0  12652-3 0  9991
2 34554  74.0381 265.8296 0024511 280.9354 109.3187 14.38307181908246
COSMOS 2251 DEB         
1 34556U 93036US  26195.10882148  .00006793  00000+0  81370-3 0  9995
2 34556  74.0136  63.1401 0009110  92.4024  62.8728 14.84255502914882
COSMOS 2251 DEB         
1 34560U 93036UW  26195.77771897  .00004373  00000+0  62404-3 0  9990
2 34560  74.0156  83.4325 0015094 119.1282 311.0850 14.76971252914074
COSMOS 2251 DEB         
1 34563U 93036UZ  26195.61146213  .00000613  00000+0  17496-3 0  9998
2 34563  74.0373 164.1532 0014107 213.8779 266.3312 14.47189995912900
COSMOS 2251 DEB         
1 34564U 93036VA  26195.44299472  .00000283  00000+0  96160-4 0  9995
2 34564  74.0310 202.5047 0020372 259.4923 251.5576 14.41016453910849
COSMOS 2251 DEB         
1 34567U 93036VD  26195.56230940  .00000165  00000+0  80291-4 0  9993
2 34567  74.0417 131.8736 0073340 155.0217  18.5846 14.24206099901680
COSMOS 2251 DEB         
1 34569U 93036VF  26195.71532058  .00000812  00000+0  31300-3 0  9992
2 34569  73.9901 171.0020 0157907 310.4018 103.5964 14.25337914900168
COSMOS 2251 DEB         
1 34570U 93036VG  26195.50042602  .00000418  00000+0  25599-3 0  9997
2 34570  73.9560 206.3775 0189393  43.4158 109.1535 14.00230552885927
COSMOS 2251 DEB         
1 34571U 93036VH  26194.27454796  .00003875  00000+0  93285-3 0  9999
2 34571  74.0375 142.7520 0060893 128.3943 232.2710 14.52490459903760
COSMOS 2251 DEB         
1 34572U 93036VJ  26195.68970198  .00003621  00000+0  85472-3 0  9993
2 34572  74.0082  71.8039 0063738  94.8852 333.2202 14.53327233904837
COSMOS 2251 DEB         
1 34574U 93036VL  26195.54118856  .00002043  00000+0  30913-3 0  9992
2 34574  74.0681 347.8754 0064154 314.5426 115.3048 14.73557165919256
COSMOS 2251 DEB         
1 34576U 93036VN  26195.77782800  .00001184  00000+0  27112-3 0  9997
2 34576  74.0328  92.2121 0008251 176.5165 241.0014 14.56732886915822
COSMOS 2251 DEB         
1 34579U 93036VR  26195.76928822  .00000514  00000+0  15162-3 0  9993
2 34579  74.0513 185.1969 0027114 205.3613 209.9895 14.45915516912672
COSMOS 2251 DEB         
1 34582U 93036VU  26195.49341155  .00000662  00000+0  19841-3 0  9997
2 34582  74.0171 234.5589 0050444 294.8292  64.7623 14.44115278910323
COSMOS 2251 DEB         
1 34588U 93036WA  26195.58212580  .00000481  00000+0  15263-3 0  9995
2 34588  74.0412 231.7993 0019436 240.4243 243.7625 14.42586213910335
COSMOS 2251 DEB         
1 34589U 93036WB  26195.39182560  .00000217  00000+0  16391-3 0  9999
2 34589  73.9246  51.8525 0248608 313.7253 226.8600 13.86421143876727
COSMOS 2251 DEB         
1 34590U 93036WC  26195.68727652  .00000166  00000+0  44106-4 0  9999
2 34590  74.0440 277.7445 0069552 352.0865 134.4583 14.55065047922327
COSMOS 2251 DEB         
1 34609U 93036WE  26195.45856646  .00000605  00000+0  25600-3 0  9996
2 34609  73.7319  75.8383 0142027 261.3429 278.4939 14.22538953896705
COSMOS 2251 DEB         
1 34610U 93036WF  26195.82448792  .00001390  00000+0  71494-3 0  9992
2 34610  74.0162 246.4836 0181646 328.2656  30.7631 14.08072215885727
COSMOS 2251 DEB         
1 34611U 93036WG  26195.72388999  .00003863  00000+0  60011-3 0  9994
2 34611  74.0513  45.4749 0020885  37.2845  81.9652 14.73288453915384
COSMOS 2251 DEB         
1 34613U 93036WJ  26195.85039442  .00001309  00000+0  50748-3 0  9995
2 34613  73.9624 249.3219 0110423  31.9093  87.4743 14.27646780895174
COSMOS 2251 DEB         
1 34614U 93036WK  26195.80501491  .00003053  00000+0  11898-2 0  9999
2 34614  73.8813 317.0499 0179453 274.0221 215.4340 14.21727598878053
COSMOS 2251 DEB         
1 34615U 93036WL  26194.77725689  .00000337  00000+0  32875-3 0  9993
2 34615  74.0089 312.4233 0397347 175.4680 315.3684 13.52450289856953
COSMOS 2251 DEB         
1 34619U 93036WQ  26195.26676383  .00000348  00000+0  66785-4 0  9998
2 34619  74.0442 149.4067 0093249 190.4691 169.4540 14.65173340924259
COSMOS 2251 DEB         
1 34620U 93036WR  26195.33259185  .00003400  00000+0  79796-3 0  9992
2 34620  74.0475 177.7507 0072298 164.9746 195.3589 14.53262785899260
COSMOS 2251 DEB         
1 34622U 93036WT  26194.94340571  .00000662  00000+0  28938-3 0  9999
2 34622  74.0409 284.2155 0107429 317.3193 164.3341 14.22740282894915
COSMOS 2251 DEB         
1 34626U 93036WX  26195.67241426  .00001665  00000+0  25391-3 0  9997
2 34626  74.0463 267.0807 0029271 304.8617 182.4499 14.74468685922954
COSMOS 2251 DEB         
1 34634U 93036XF  26195.59836171  .00000534  00000+0  12569-3 0  9991
2 34634  74.0517 349.8531 0045027  40.6349  88.2540 14.56286116918941
COSMOS 2251 DEB         
1 34635U 93036XG  26195.85430734  .00002670  00000+0  43742-3 0  9996
2 34635  74.0432  15.9173 0029762  31.4044  33.1414 14.70999116763651
COSMOS 2251 DEB         
1 34637U 93036XJ  26195.66826352  .00001642  00000+0  33013-3 0  9990
2 34637  74.0478  52.5873 0049713  67.9321 355.2874 14.61674936916510
COSMOS 2251 DEB         
1 34641U 93036XN  26195.56493811  .00001058  00000+0  26122-3 0  9998
2 34641  73.8371  33.4467 0015411 269.9267 120.8598 14.53381923913611
COSMOS 2251 DEB         
1 34642U 93036XP  26195.07362590  .00000921  00000+0  53443-3 0  9998
2 34642  74.0040 330.0180 0208523 100.8735  18.8153 13.99713934882772
COSMOS 2251 DEB         
1 34671U 93036XR  26195.73366102  .00002773  00000+0  46379-3 0  9993
2 34671  74.0256  79.9159 0012192 111.9873 305.1795 14.70304853914393
COSMOS 2251 DEB         
1 34672U 93036XS  26191.95041759  .00000230  00000+0  86649-4 0  9993
2 34672  74.0335 279.2734 0025447 303.8761 174.7177 14.36686253681968
COSMOS 2251 DEB         
1 34678U 93036XY  26195.36818741 -.00000015  00000+0  42884-5 0  9997
2 34678  74.0386 337.3042 0025839 334.4089  53.2072 14.30096354904331
COSMOS 2251 DEB         
1 34680U 93036YA  26195.44072672  .00001831  00000+0  36625-3 0  9994
2 34680  74.0427  81.1102 0006889 121.7242  56.1294 14.62581499914505
COSMOS 2251 DEB         
1 34681U 93036YB  26195.51474450  .00003300  00000+0  36547-3 0  9999
2 34681  74.0590 226.1561 0024308 239.5365 282.5036 14.87558084924452
COSMOS 2251 DEB         
1 34682U 93036YC  26195.33835179  .00001356  00000+0  28662-3 0  9997
2 34682  74.0379  35.6895 0018504 110.0464  66.4945 14.60229344918024
COSMOS 2251 DEB         
1 34683U 93036YD  26195.61840932  .00002285  00000+0  41370-3 0  9995
2 34683  74.0275  40.1499 0019409  97.5057 319.3208 14.66822761914827
COSMOS 2251 DEB         
1 34685U 93036YF  26195.84293626  .00001587  00000+0  34224-3 0  9998
2 34685  74.0284 101.0626 0014240 154.1882 274.8038 14.59200830916537
COSMOS 2251 DEB         
1 34689U 93036YK  26195.47277028  .00002621  00000+0  12563-2 0  9990
2 34689  74.0845 210.6423 0224436 229.0764 284.2108 14.07160006873456
COSMOS 2251 DEB         
1 34721U 93036YP  26195.35057440  .00001174  00000+0  69895-3 0  9991
2 34721  73.9236 315.4056 0214638 211.6308 178.6827 13.97663004881339
COSMOS 2251 DEB         
1 34722U 93036YQ  26195.59742492  .00000658  00000+0  32657-3 0  9998
2 34722  73.8744 314.5151 0163569 199.3446 179.2339 14.12446669892645
COSMOS 2251 DEB         
1 34726U 93036YU  26195.45162511  .00000777  00000+0  16496-3 0  9990
2 34726  74.0284 298.3366 0043148  32.2922 328.0871 14.60334332916213
COSMOS 2251 DEB         
1 34728U 93036YW  26194.98087409  .00001753  00000+0  27715-3 0  9992
2 34728  74.0143 196.6471 0043625 300.3167  59.3693 14.72520860919378
